[{"OBJECT_NAME":"ONEWEB-0348","OBJECT_ID":"2021-083AD","EPOCH":"2026-03-23T03:07:26.849568","MEAN_MOTION":13.20771436,"ECCENTRICITY":0.00013851,"INCLINATION":87.9153,"RA_OF_ASC_NODE":291.6234,"ARG_OF_PERICENTER":71.5278,"MEAN_ANOMALY":288.6006,"EPHEMERIS_TYPE":0,"CLASSIFICATION_TYPE":"U","NORAD_CAT_ID":49213,"ELEMENT_SET_NO":999,"REV_AT_EPOCH":22545,"BSTAR":9.6593882e-5,"MEAN_MOTION_DOT":5.2e-7,"MEAN_MOTION_DDOT":0},{"OBJECT_NAME":"ONEWEB-0350","OBJECT_ID":"2021-083AE","EPOCH":"2026-03-23T04:36:59.667264","MEAN_MOTION":13.13470141,"ECCENTRICITY":0.00018006,"INCLINATION":87.902,"RA_OF_ASC_NODE":337.3332,"ARG_OF_PERICENTER":68.8646,"MEAN_ANOMALY":291.2675,"EPHEMERIS_TYPE":0,"CLASSIFICATION_TYPE":"U","NORAD_CAT_ID":49214,"ELEMENT_SET_NO":999,"REV_AT_EPOCH":21964,"BSTAR":-0.001315929,"MEAN_MOTION_DOT":-4.68e-6,"MEAN_MOTION_DDOT":0},{"OBJECT_NAME":"ONEWEB-0351","OBJECT_ID":"2021-083AF","EPOCH":"2026-03-23T06:36:20.489760","MEAN_MOTION":13.20771717,"ECCENTRICITY":0.00025884,"INCLINATION":87.9153,"RA_OF_ASC_NODE":291.5928,"ARG_OF_PERICENTER":87.8091,"MEAN_ANOMALY":272.3338,"EPHEMERIS_TYPE":0,"CLASSIFICATION_TYPE":"U","NORAD_CAT_ID":49215,"ELEMENT_SET_NO":999,"REV_AT_EPOCH":22543,"BSTAR":-9.9578646e-5,"MEAN_MOTION_DOT":-2.7e-7,"MEAN_MOTION_DDOT":0},{"OBJECT_NAME":"ONEWEB-0352","OBJECT_ID":"2021-083AG","EPOCH":"2026-03-23T04:08:58.013952","MEAN_MOTION":13.13471597,"ECCENTRICITY":0.00021677,"INCLINATION":87.9017,"RA_OF_ASC_NODE":337.3531,"ARG_OF_PERICENTER":81.5531,"MEAN_ANOMALY":278.5844,"EPHEMERIS_TYPE":0,"CLASSIFICATION_TYPE":"U","NORAD_CAT_ID":49216,"ELEMENT_SET_NO":999,"REV_AT_EPOCH":21973,"BSTAR":0.00037712997,"MEAN_MOTION_DOT":1.5e-6,"MEAN_MOTION_DDOT":0},{"OBJECT_NAME":"ONEWEB-0354","OBJECT_ID":"2021-083AH","EPOCH":"2026-03-22T23:56:32.104320","MEAN_MOTION":13.20770836,"ECCENTRICITY":0.0001644,"INCLINATION":87.915,"RA_OF_ASC_NODE":291.6473,"ARG_OF_PERICENTER":78.7115,"MEAN_ANOMALY":281.4203,"EPHEMERIS_TYPE":0,"CLASSIFICATION_TYPE":"U","NORAD_CAT_ID":49217,"ELEMENT_SET_NO":999,"REV_AT_EPOCH":22543,"BSTAR":-0.00015345,"MEAN_MOTION_DOT":-4.9e-7,"MEAN_MOTION_DDOT":0},{"OBJECT_NAME":"ONEWEB-0355","OBJECT_ID":"2021-083AJ","EPOCH":"2026-03-23T04:50:36.710592","MEAN_MOTION":13.13470791,"ECCENTRICITY":0.00019237,"INCLINATION":87.9012,"RA_OF_ASC_NODE":337.3566,"ARG_OF_PERICENTER":75.4962,"MEAN_ANOMALY":284.6381,"EPHEMERIS_TYPE":0,"CLASSIFICATION_TYPE":"U","NORAD_CAT_ID":49218,"ELEMENT_SET_NO":999,"REV_AT_EPOCH":21961,"BSTAR":-0.00063175541,"MEAN_MOTION_DOT":-2.18e-6,"MEAN_MOTION_DDOT":0},{"OBJECT_NAME":"ONEWEB-0357","OBJECT_ID":"2021-083AK","EPOCH":"2026-03-22T23:51:59.321376","MEAN_MOTION":13.20771148,"ECCENTRICITY":0.00018844,"INCLINATION":87.9149,"RA_OF_ASC_NODE":291.6427,"ARG_OF_PERICENTER":88.1178,"MEAN_ANOMALY":272.0171,"EPHEMERIS_TYPE":0,"CLASSIFICATION_TYPE":"U","NORAD_CAT_ID":49219,"ELEMENT_SET_NO":999,"REV_AT_EPOCH":22543,"BSTAR":0.00014420762,"MEAN_MOTION_DOT":7.2e-7,"MEAN_MOTION_DDOT":0},{"OBJECT_NAME":"ONEWEB-0332","OBJECT_ID":"2021-090A","EPOCH":"2026-03-23T03:06:21.461184","MEAN_MOTION":13.14503895,"ECCENTRICITY":0.00017706,"INCLINATION":87.8957,"RA_OF_ASC_NODE":306.8852,"ARG_OF_PERICENTER":90.4695,"MEAN_ANOMALY":269.6638,"EPHEMERIS_TYPE":0,"CLASSIFICATION_TYPE":"U","NORAD_CAT_ID":49279,"ELEMENT_SET_NO":999,"REV_AT_EPOCH":21627,"BSTAR":0.00015068382,"MEAN_MOTION_DOT":6.9e-7,"MEAN_MOTION_DDOT":0},{"OBJECT_NAME":"ONEWEB-0347","OBJECT_ID":"2021-090B","EPOCH":"2026-03-23T03:16:32.386080","MEAN_MOTION":13.20771338,"ECCENTRICITY":0.0001715,"INCLINATION":87.9154,"RA_OF_ASC_NODE":291.6232,"ARG_OF_PERICENTER":97.6802,"MEAN_ANOMALY":262.4526,"EPHEMERIS_TYPE":0,"CLASSIFICATION_TYPE":"U","NORAD_CAT_ID":49280,"ELEMENT_SET_NO":999,"REV_AT_EPOCH":21968,"BSTAR":0.00013056403,"MEAN_MOTION_DOT":6.6e-7,"MEAN_MOTION_DDOT":0},{"OBJECT_NAME":"ONEWEB-0349","OBJECT_ID":"2021-090C","EPOCH":"2026-03-23T02:12:54.319104","MEAN_MOTION":13.20771019,"ECCENTRICITY":0.00016934,"INCLINATION":87.915,"RA_OF_ASC_NODE":291.6322,"ARG_OF_PERICENTER":87.2902,"MEAN_ANOMALY":272.8425,"EPHEMERIS_TYPE":0,"CLASSIFICATION_TYPE":"U","NORAD_CAT_ID":49281,"ELEMENT_SET_NO":999,"REV_AT_EPOCH":21846,"BSTAR":1.6124821e-5,"MEAN_MOTION_DOT":2.0e-7,"MEAN_MOTION_DDOT":0},{"OBJECT_NAME":"ONEWEB-0353","OBJECT_ID":"2021-090D","EPOCH":"2026-03-23T01:05:19.383936","MEAN_MOTION":13.14504262,"ECCENTRICITY":0.00017553,"INCLINATION":87.8961,"RA_OF_ASC_NODE":306.8963,"ARG_OF_PERICENTER":92.9185,"MEAN_ANOMALY":267.2146,"EPHEMERIS_TYPE":0,"CLASSIFICATION_TYPE":"U","NORAD_CAT_ID":49282,"ELEMENT_SET_NO":999,"REV_AT_EPOCH":21626,"BSTAR":-0.0003733836,"MEAN_MOTION_DOT":-1.26e-6,"MEAN_MOTION_DDOT":0},{"OBJECT_NAME":"ONEWEB-0356","OBJECT_ID":"2021-090E","EPOCH":"2026-03-23T02:10:37.393248","MEAN_MOTION":13.20771297,"ECCENTRICITY":0.00010426,"INCLINATION":87.9151,"RA_OF_ASC_NODE":291.6257,"ARG_OF_PERICENTER":113.2465,"MEAN_ANOMALY":246.8779,"EPHEMERIS_TYPE":0,"CLASSIFICATION_TYPE":"U","NORAD_CAT_ID":49283,"ELEMENT_SET_NO":999,"REV_AT_EPOCH":21846,"BSTAR":0.00011215146,"MEAN_MOTION_DOT":5.9e-7,"MEAN_MOTION_DDOT":0},{"OBJECT_NAME":"ONEWEB-0358","OBJECT_ID":"2021-090F","EPOCH":"2026-03-23T06:31:59.772576","MEAN_MOTION":13.20771534,"ECCENTRICITY":0.00015603,"INCLINATION":87.9153,"RA_OF_ASC_NODE":291.5922,"ARG_OF_PERICENTER":85.7926,"MEAN_ANOMALY":274.3386,"EPHEMERIS_TYPE":0,"CLASSIFICATION_TYPE":"U","NORAD_CAT_ID":49284,"ELEMENT_SET_NO":999,"REV_AT_EPOCH":21921,"BSTAR":0.00015786754,"MEAN_MOTION_DOT":7.7e-7,"MEAN_MOTION_DDOT":0},{"OBJECT_NAME":"ONEWEB-0359","OBJECT_ID":"2021-090G","EPOCH":"2026-03-23T06:27:26.734752","MEAN_MOTION":13.20772152,"ECCENTRICITY":0.00015989,"INCLINATION":87.9151,"RA_OF_ASC_NODE":291.5902,"ARG_OF_PERICENTER":78.1153,"MEAN_ANOMALY":282.016,"EPHEMERIS_TYPE":0,"CLASSIFICATION_TYPE":"U","NORAD_CAT_ID":49285,"ELEMENT_SET_NO":999,"REV_AT_EPOCH":21919,"BSTAR":-0.00031899493,"MEAN_MOTION_DOT":-1.17e-6,"MEAN_MOTION_DDOT":0},{"OBJECT_NAME":"ONEWEB-0360","OBJECT_ID":"2021-090H","EPOCH":"2026-03-23T02:35:37.425984","MEAN_MOTION":13.20771067,"ECCENTRICITY":0.00016903,"INCLINATION":87.9152,"RA_OF_ASC_NODE":291.6286,"ARG_OF_PERICENTER":82.8752,"MEAN_ANOMALY":277.2573,"EPHEMERIS_TYPE":0,"CLASSIFICATION_TYPE":"U","NORAD_CAT_ID":49286,"ELEMENT_SET_NO":999,"REV_AT_EPOCH":21848,"BSTAR":-0.00019492876,"MEAN_MOTION_DOT":-6.6e-7,"MEAN_MOTION_DDOT":0},{"OBJECT_NAME":"ONEWEB-0361","OBJECT_ID":"2021-090J","EPOCH":"2026-03-23T02:08:21.175008","MEAN_MOTION":13.20770882,"ECCENTRICITY":0.00015124,"INCLINATION":87.9151,"RA_OF_ASC_NODE":291.6302,"ARG_OF_PERICENTER":90.1455,"MEAN_ANOMALY":269.9851,"EPHEMERIS_TYPE":0,"CLASSIFICATION_TYPE":"U","NORAD_CAT_ID":49287,"ELEMENT_SET_NO":999,"REV_AT_EPOCH":21893,"BSTAR":0.00010672639,"MEAN_MOTION_DOT":5.6e-7,"MEAN_MOTION_DDOT":0}]
