ONEWEB-0348             
1 49213U 21083AD  26082.13017187  .00000052  00000+0  96594-4 0  9992
2 49213  87.9153 291.6234 0001385  71.5278 288.6006 13.20771436225450
ONEWEB-0350             
1 49214U 21083AE  26082.19235726 -.00000468  00000+0 -13159-2 0  9997
2 49214  87.9020 337.3332 0001800  68.8646 291.2675 13.13470141219648
ONEWEB-0351             
1 49215U 21083AF  26082.27523715 -.00000027  00000+0 -99579-4 0  9998
2 49215  87.9153 291.5928 0002588  87.8091 272.3338 13.20771717225438
ONEWEB-0352             
1 49216U 21083AG  26082.17289368  .00000150  00000+0  37713-3 0  9997
2 49216  87.9017 337.3531 0002167  81.5531 278.5844 13.13471597219731
ONEWEB-0354             
1 49217U 21083AH  26081.99759380 -.00000049  00000+0 -15345-3 0  9999
2 49217  87.9150 291.6473 0001644  78.7115 281.4203 13.20770836225434
ONEWEB-0355             
1 49218U 21083AJ  26082.20181378 -.00000218  00000+0 -63176-3 0  9994
2 49218  87.9012 337.3566 0001923  75.4962 284.6381 13.13470791219611
ONEWEB-0357             
1 49219U 21083AK  26081.99443659  .00000072  00000+0  14421-3 0  9998
2 49219  87.9149 291.6427 0001884  88.1178 272.0171 13.20771148225430
ONEWEB-0332             
1 49279U 21090A   26082.12941506  .00000069  00000+0  15068-3 0  9996
2 49279  87.8957 306.8852 0001770  90.4695 269.6638 13.14503895216274
ONEWEB-0347             
1 49280U 21090B   26082.13648595  .00000066  00000+0  13056-3 0  9993
2 49280  87.9154 291.6232 0001715  97.6802 262.4526 13.20771338219688
ONEWEB-0349             
1 49281U 21090C   26082.09229536  .00000020  00000+0  16125-4 0  9990
2 49281  87.9150 291.6322 0001693  87.2902 272.8425 13.20771019218460
ONEWEB-0353             
1 49282U 21090D   26082.04536324 -.00000126  00000+0 -37338-3 0  9999
2 49282  87.8961 306.8963 0001755  92.9185 267.2146 13.14504262216266
ONEWEB-0356             
1 49283U 21090E   26082.09071057  .00000059  00000+0  11215-3 0  9991
2 49283  87.9151 291.6257 0001042 113.2465 246.8779 13.20771297218463
ONEWEB-0358             
1 49284U 21090F   26082.27221959  .00000077  00000+0  15787-3 0  9998
2 49284  87.9153 291.5922 0001560  85.7926 274.3386 13.20771534219212
ONEWEB-0359             
1 49285U 21090G   26082.26905943 -.00000117  00000+0 -31899-3 0  9999
2 49285  87.9151 291.5902 0001598  78.1153 282.0160 13.20772152219198
ONEWEB-0360             
1 49286U 21090H   26082.10807206 -.00000066  00000+0 -19493-3 0  9995
2 49286  87.9152 291.6286 0001690  82.8752 277.2573 13.20771067218485
ONEWEB-0361             
1 49287U 21090J   26082.08913397  .00000056  00000+0  10673-3 0  9990
2 49287  87.9151 291.6302 0001512  90.1455 269.9851 13.20770882218930
